ONEWEB-0229             
1 48779U 21045N   24284.21430798  .00000117  00000+0  27725-3 0  9995
2 48779  87.9124  21.5918 0001895 105.2565 254.8775 13.15551883164684
ONEWEB-0228             
1 48780U 21045P   24284.01861640 -.00000007  00000+0 -53360-4 0  9994
2 48780  87.9116  21.6109 0001941 103.1933 256.9414 13.15548384164571
ONEWEB-0232             
1 48781U 21045Q   24283.84194545 -.00000074  00000+0 -23008-3 0  9997
2 48781  87.9113  21.6542 0001915 102.5926 257.5419 13.15549985164868
ONEWEB-0231             
1 48782U 21045R   24283.81974966  .00000184  00000+0  45344-3 0  9995
2 48782  87.9132  21.7059 0002094 105.0566 255.0796 13.15551805163438
ONEWEB-0234             
1 48783U 21045S   24283.83956500 -.00000020  00000+0 -85807-4 0  9992
2 48783  87.9121  21.6523 0001786  60.3936 299.7372 13.15551030163573
ONEWEB-0238             
1 48784U 21045T   24283.79362058  .00000141  00000+0  34109-3 0  9997
2 48784  87.9118  21.6784 0001736  98.4437 261.6890 13.15550081163468
ONEWEB-0240             
1 48785U 21045U   24283.80312910  .00000190  00000+0  47016-3 0  9997
2 48785  87.9119  21.6434 0002239  98.4407 261.6977 13.15550252163497
ONEWEB-0246             
1 48786U 21045V   24283.79756492  .00000192  00000+0  47647-3 0  9995
2 48786  87.9118  21.6507 0001905 105.9026 254.2315 13.15551855163368
